HAWK-11B                
1 62379U 24247C   26068.44730104  .00009093  00000+0  32842-3 0  9993
2 62379  45.0161 115.7610 0004690 333.0326  27.0314 15.28847070 67738
STARLINK-33891          
1 63827U 25092Z   26068.32020249  .00036012  00000+0  13113-2 0  9990
2 63827  42.9989 175.0118 0002911 294.0448  66.0099 15.27590697 48492
